HST                     
1 20580U 90037B   22054.49715979  .00001469  00000+0  77068-4 0  9999
2 20580  28.4688 203.5925 0002326 246.9947 149.8215 15.10061935548977
POLAR                   
1 23802U 96013A   22054.04278278  .00000315  00000+0  00000+0 0  9992
2 23802  78.7419 242.7657 5861525 262.7689  31.0709  1.29846826124405
SWAS                    
1 25560U 98071A   22054.33227992  .00000655  00000+0  69212-4 0  9992
2 25560  69.8974 273.6303 0006198 154.9934 205.1524 14.94388365260970
CXO                     
1 25867U 99040B   22056.98559314  .00000746  00000+0  00000+0 0  9994
2 25867  48.4256 242.5614 8681525 230.3087   0.7180  0.37808373 22538
XMM-NEWTON              
1 25989U 99066A   22054.81314104  .00000225  00000+0  00000+0 0  9995
2 25989  70.3573 306.8892 6202447  87.9831   0.0923  0.50137885 15116
TERRA                   
1 25994U 99068A   22054.56861703  .00000138  00000+0  40489-4 0  9990
2 25994  98.1489 129.0446 0001196  96.4905  39.7892 14.57149924179917
CLUSTER II-FM7 (SAMBA)  
1 26410U 00041A   22055.78714640 -.00000128  00000+0  00000+0 0  9999
2 26410 133.6935 346.6831 5397604 197.2705 359.7199  0.44207549 13317
CLUSTER II-FM6 (SALSA)  
1 26411U 00041B   22055.77440679 -.00000110  00000+0  00000+0 0  9998
2 26411 135.3776 349.5195 7007149 201.8238 359.6229  0.44224126 13359
CLUSTER II-FM5 (RUMBA)  
1 26463U 00045A   22055.77921423 -.00000024  00000+0  00000+0 0  9994
2 26463 138.9653 349.7419 6533119 202.4982 359.7756  0.44223544 13240
CLUSTER II-FM8 (TANGO)  
1 26464U 00045B   22055.78242158 -.00000128  00000+0  00000+0 0  9992
2 26464 133.6938 346.6806 5396803 197.2473 359.7677  0.44218535 13322
ODIN                    
1 26702U 01007A   22054.57213455  .00001746  00000+0  11398-3 0  9992
2 26702  97.5289  71.4220 0009430 328.2916  31.7744 15.09117985149097
TIMED                   
1 26998U 01055B   22054.59584551  .00000497  00000+0  57576-4 0  9993
2 26998  74.0732 146.4396 0000966 319.1958  40.9151 14.88474982 96065
RHESSI                  
1 27370U 02004A   22054.30121868  .00013351  00000+0  34293-3 0  9993
2 27370  38.0337 352.0023 0011169 327.4916  32.5168 15.38703515108990
INTEGRAL                
1 27540U 02048A   22053.24486272  .00000072  00000+0  00000+0 0  9996
2 27540  71.9081  66.7866 8944935 299.6071  36.6435  0.37583101 20727
CORIOLIS                
1 27640U 03001A   22054.59743722  .00000040  00000+0  40123-4 0  9992
2 27640  98.7210  65.3938 0015172  67.0068  40.7913 14.19104481990808
SORCE                   
1 27651U 03004A   22054.50253577  .00000652  00000+0  81017-4 0  9998
2 27651  39.9952 133.5863 0022706  29.5387 330.6681 14.89580533 36079
MOST                    
1 27843U 03031D   22054.54111412  .00000015  00000+0  27381-4 0  9993
2 27843  98.7102  63.8073 0011012 114.3659 245.8669 14.20662693967072
SCISAT 1                
1 27858U 03036A   22054.41953470  .00000248  00000+0  39795-4 0  9998
2 27858  73.9325  49.2167 0006553 120.0532 240.1293 14.77443110998584
SWIFT                   
1 28485U 04047A   22054.28930344  .00002481  00000+0  13647-3 0  9996
2 28485  20.5583  31.3365 0010504 291.8863  68.0455 15.05618948946318
CLOUDSAT                
1 29107U 06016A   22054.58794466  .00000155  00000+0  39887-4 0  9993
2 29107  98.3143  13.7830 0002062 320.1900  39.9149 14.62792440842385
CALIPSO                 
1 29108U 06016B   22054.51371835  .00000456  00000+0  99079-4 0  9991
2 29108  98.3111  13.3275 0001376  80.5463 279.5893 14.62728226842387
HINODE (SOLAR-B)        
1 29479U 06041A   22054.56634271  .00000208  00000+0  47998-4 0  9999
2 29479  98.1281  71.1444 0017714 221.6470 138.3385 14.64694608824086
SJ-6C                   
1 29505U 06046A   22054.57198707  .00000980  00000+0  93570-4 0  9998
2 29505  97.7877  76.3236 0005459 126.9365 233.2335 14.95568728835675
SJ-6D                   
1 29506U 06046B   22054.61199159  .00001016  00000+0  10132-3 0  9999
2 29506  97.8072  76.5672 0001515 183.1615 176.9604 14.93762283835146
AGILE                   
1 31135U 07013A   22054.12437666  .00007099  00000+0  16487-3 0  9995
2 31135   2.4686  51.9623 0010232  95.5278 264.5943 15.35504976459333
AIM                     
1 31304U 07015A   22054.39389484  .00004175  00000+0  22220-3 0  9992
2 31304  97.8581 329.5086 0006506  58.0249 302.1614 15.15813186813906
FGRST (GLAST)           
1 33053U 08029A   22053.86403472  .00001104  00000+0  45950-4 0  9991
2 33053  25.5814 228.3285 0011839 293.5355  66.3937 15.11824310756339
WISE                    
1 36119U 09071A   22054.60889802  .00003431  00000+0  11316-3 0  9996
2 36119  97.2564  91.3314 0002669  30.3315 329.8081 15.32102643678069
SDO                     
1 36395U 10005A   22054.17149788 -.00000078  00000+0  00000+0 0  9994
2 36395  31.4320 111.0784 0001922 239.2696 122.2455  1.00275505 44277
CRYOSAT 2               
1 36508U 10013A   22054.53633516  .00000128  00000+0  30927-4 0  9997
2 36508  92.0226 256.4848 0003273 279.3738  80.7099 14.51900153629601
X-SAT                   
1 37389U 11015C   22054.50151457  .00000029  00000+0  30165-4 0  9998
2 37389  98.3511  93.4688 0012966 288.3162  71.6610 14.24404111563985
GCOM-W1 (SHIZUKU)       
1 38337U 12025A   22054.08758016  .00000225  00000+0  59937-4 0  9997
2 38337  98.2079 356.3790 0000850 105.6497 265.6157 14.57152420519669
NUSTAR                  
1 38358U 12031A   22053.32325444  .00001817  00000+0  11473-3 0  9998
2 38358   6.0269 121.1230 0011110 117.4743 242.6516 14.88885662527661
NEOSSAT                 
1 39089U 13009D   22054.56673686  .00000078  00000+0  42929-4 0  9996
2 39089  98.4278 253.6740 0010202 255.1892 104.8163 14.34619343470881
BRITE-AUSTRIA           
1 39091U 13009F   22054.51004658  .00000059  00000+0  35527-4 0  9996
2 39091  98.4119 254.7210 0009363 256.3089 103.7055 14.35231319471084
IRIS                    
1 39197U 13033A   22054.52911054  .00000429  00000+0  64775-4 0  9996
2 39197  97.9674 241.3953 0028309  39.7199 320.6078 14.79042325467134
HISAKI (SPRINT-A)       
1 39253U 13049A   22054.34848697  .00000166  00000+0  13416-3 0  9991
2 39253  29.7208 304.6054 0137412 212.5110 146.6936 13.55261827417618
CASSIOPE                
1 39265U 13055A   22054.54561030  .00010039  00000+0  27644-3 0  9994
2 39265  80.9680  27.8675 0633166 295.1948  58.4875 14.35839701435972
STSAT-3                 
1 39422U 13066G   22054.54865687  .00000426  00000+0  49208-4 0  9996
2 39422  97.4729  65.8474 0021514 304.2452  55.6721 14.90169317448875
SWARM B                 
1 39451U 13067A   22054.59053282  .00001164  00000+0  48806-4 0  9997
2 39451  87.7460  95.4390 0003538  72.9052 287.2581 15.22470597443624
SWARM A                 
1 39452U 13067B   22054.59353188  .00004508  00000+0  87871-4 0  9996
2 39452  87.3554 266.0647 0003430  95.4927 264.6723 15.47201912464347
SWARM C                 
1 39453U 13067C   22054.59345301  .00004521  00000+0  88138-4 0  9997
2 39453  87.3407 265.7676 0003426  95.5472 264.6178 15.47201790464308
BRITE-CA1 (TORONTO)     
1 40020U 14033L   22054.43926252  .00000343  00000+0  66740-4 0  9999
2 40020  97.7618 219.3082 0085753 267.1109  92.0280 14.66865920410941
OCO 2                   
1 40059U 14035A   22054.56304924  .00000193  00000+0  52893-4 0  9990
2 40059  98.1915 357.5894 0001426  84.5763 275.5598 14.57115004406740
BRITE-PL2 (HEWELIUSZ)   
1 40119U 14049B   22054.26638937  .00000522  00000+0  67684-4 0  9993
2 40119  97.8822 151.1212 0016024 254.6104 105.3340 14.84855188407066
RESURS P2               
1 40360U 14087A   22054.48305058  .00003736  00000+0  11096-3 0  9997
2 40360  97.2130 141.7536 0010579 132.2380 357.9184 15.35342467400769
MMS 1                   
1 40482U 15011A   22049.37500000 -.00001793  00000+0  00000+0 0  9997
2 40482  33.2030 110.3704 8553758  44.9851 156.8124  0.28440465 12967
MMS 2                   
1 40483U 15011B   22049.37500000 -.00001792  00000+0  00000+0 0  9997
2 40483  33.2012 110.3736 8553178  44.9909 156.7827  0.28440420 13021
MMS 3                   
1 40484U 15011C   22049.37500000 -.00001792  00000+0  00000+0 0  9998
2 40484  33.1960 110.3396 8553205  45.0179 156.7878  0.28439167 12703
MMS 4                   
1 40485U 15011D   22049.37500000 -.00001792  00000+0  00000+0 0  9999
2 40485  33.2032 110.3721 8552345  44.9837 156.8058  0.28440432 12911
ASTROSAT                
1 40930U 15052A   22053.10470832  .00001060  00000+0  59426-4 0  9992
2 40930   5.9962 280.7821 0008990 319.7049  40.2412 14.76498921346070
DAMPE                   
1 41173U 15078A   22054.51795753  .00000539  00000+0  24983-4 0  9998
2 41173  97.3701  47.0936 0011980 238.4880 239.3923 15.24206239344226
PISAT                   
1 41784U 16059B   22054.60292870  .00000282  00000+0  62497-4 0  9995
2 41784  97.9333 102.3014 0032247 167.1668 193.0363 14.63758466289031
HXMT (HUIYAN)           
1 42758U 17034A   22054.51460083  .00001314  00000+0  93386-4 0  9992
2 42758  43.0167 254.6140 0009591 287.8581 162.2871 15.09743987258953
FLYING LAPTOP           
1 42831U 17042G   22054.55808738  .00000804  00000+0  85282-4 0  9999
2 42831  97.4374 275.5486 0014707  33.8668 326.3529 14.91528175251117
PICSAT                  
1 43132U 18004X   22054.47848801  .00007225  00000+0  26535-3 0  9998
2 43132  97.3827 131.7173 0009294  49.5053 310.6995 15.28192143228982
ZHANGZHENG-1 (CSES)     
1 43194U 18015C   22054.51083515  .00005415  00000+0  24599-3 0  9993
2 43194  97.5044 185.5567 0013058 124.4234 306.0731 15.21117801225305
ICON                    
1 44628U 19068A   22054.09880217  .00001362  00000+0  11034-3 0  9999
2 44628  26.9902 335.7136 0018776 181.4296 178.6210 14.92339476129467
SALSAT                  
1 46495U 20068K   22054.41064942  .00000809  00000+0  63097-4 0  9992
2 46495  97.7192 355.8102 0015309 307.9945  51.9897 15.03915794 77045
IXPE                    
1 49954U 21121A   22046.02635046  .00002250  00000+0  14705-3 0  9996
2 49954   0.2285 201.0830 0011445 295.4182 223.5887 14.90879521 10125
